SL-8 R/B                
1 15483U 85006B   26177.14009044  .00000158  00000+0  61017-4 0  9997
2 15483  74.0460  61.5895 0019065 307.3406 164.9565 14.37838360169614
SL-12 R/B(2)            
1 15772U 85042D   26177.30928241  .00000114  00000+0  72831-4 0  9993
2 15772  71.1066 218.2437 0036788 314.0770 118.9452 14.22007344129836
SL-14 R/B               
1 15945U 85069B   26177.25646344  .00000417  00000+0  44272-4 0  9993
2 15945  82.5274 282.8366 0018536 187.9860 172.1065 14.86522075188965
SL-16 R/B               
1 16182U 85097B   26177.30575797  .00000221  00000+0  13458-3 0  9991
2 16182  71.0034 271.8805 0005368  91.4953 328.6803 14.16613159102616
SL-14 R/B               
1 16496U 86006B   26177.00155293  .00000493  00000+0  49746-4 0  9993
2 16496  82.5266 157.8183 0074684 273.6613  85.6066 14.86953224165307
COSMOS 1743             
1 16719U 86034A   26176.89370333  .00053124  00000+0  48335-3 0  9993
2 16719  82.5273 319.4704 0004526 237.8845 122.1976 15.67721482197159
SL-14 R/B               
1 16792U 86046B   26176.90854836  .00000412  00000+0  44608-4 0  9996
2 16792  82.4820 337.9333 0021934 227.7799 132.1556 14.85676711142471
SL-14 R/B               
1 16882U 86055B   26177.11387888  .00000360  00000+0  38633-4 0  9991
2 16882  82.5199  24.7395 0018228 337.9149 143.7703 14.85728560135468
AJISAI (EGS)            
1 16908U 86061A   26177.30191983 -.00000108  00000+0 -72797-4 0  9998
2 16908  50.0082 119.3669 0011163 203.7352 277.1174 12.44516770481526
SL-14 R/B               
1 17567U 87024B   26177.23926087  .00000411  00000+0  43932-4 0  9997
2 17567  82.5281 350.7409 0016692 260.4854  99.4476 14.86218880104252
COSMOS 1833             
1 17589U 87027A   26177.16935912  .00000288  00000+0  17926-3 0  9998
2 17589  70.9200  97.9890 0023117  40.0887 320.1935 14.13056821 25644
SL-16 R/B               
1 17590U 87027B   26176.96856261  .00000226  00000+0  13557-3 0  9994
2 17590  71.0033  48.3242 0006695 302.8463  57.2015 14.17172197 30680
SL-14 R/B               
1 17912U 87038B   26177.29008605  .00000349  00000+0  37567-4 0  9996
2 17912  82.5004 194.4977 0019709 161.2473 198.9474 14.85450109 95353
COSMOS 1844             
1 17973U 87041A   26177.29993105  .00000177  00000+0  11709-3 0  9993
2 17973  70.8967 165.0849 0032411 222.1569 137.7060 14.14568363 18944
SL-14 R/B               
1 18153U 87055B   26177.24790409  .00000333  00000+0  35428-4 0  9995
2 18153  82.4988 246.6881 0021019  18.8981 341.3010 14.85716398 86055
COSMOS 1867             
1 18187U 87060A   26177.21514488 -.00000026  00000+0  27850-4 0  9996
2 18187  65.0115   2.7746 0016718 282.0723  77.8487 14.31516729 35477
SL-14 R/B               
1 18749U 88001B   26177.25055316  .00000375  00000+0  40513-4 0  9997
2 18749  82.5135  93.2475 0016666 236.8142 123.1476 14.85615396 58146
COSMOS 1933             
1 18958U 88020A   26176.99804091  .00004162  00000+0  19881-3 0  9993
2 18958  82.5121 143.7095 0004496 156.2422 203.9020 15.18765145 66669
SL-3 R/B                
1 19046U 88032B   26177.19110610  .00004143  00000+0  18916-3 0  9992
2 19046  97.5255 160.2227 0024507 211.7685 148.2073 15.20900762 68598
SL-16 R/B               
1 19120U 88039B   26177.28093233 -.00000116  00000+0 -31920-4 0  9992
2 19120  71.0129 198.9292 0021713 179.4027 180.7128 14.19630832973798
COSMOS 1953             
1 19210U 88050A   26177.10938867  .00008379  00000+0  28599-3 0  9991
2 19210  82.5080  49.0370 0012469  99.1374 261.1277 15.30092420 54355
SL-8 R/B                
1 19257U 88053B   26177.25310307  .00000159  00000+0  59954-4 0  9992
2 19257  74.0479 272.3460 0019235  64.3241   2.2902 14.38970670992214
COSMOS 1975             
1 19573U 88093A   26177.24886637  .00007553  00000+0  26298-3 0  9999
2 19573  82.5187   8.5857 0012108 141.5898 218.6207 15.29436482 35995
SL-14 R/B               
1 19574U 88093B   26177.29774406  .00000409  00000+0  44114-4 0  9996
2 19574  82.5317 300.0914 0021638  42.0761  21.2581 14.85748185 17144
SL-16 R/B               
1 19650U 88102B   26176.69328450  .00000259  00000+0  15490-3 0  9996
2 19650  71.0002 284.2409 0015323 213.2883 146.7278 14.16166267942182
INTERCOSMOS 24          
1 20261U 89080A   26177.07046439  .00000691  00000+0  19590-3 0  9994
2 20261  82.6056  33.8646 1188147  41.3141 327.1929 12.59673987680446
SL-14 R/B               
1 20262U 89080C   26177.28206013  .00000151  00000+0  45587-4 0  9991
2 20262  82.5942 103.4649 1228424 296.5841  51.4524 12.50574189673727
DELTA 1 R/B             
1 20323U 89089B   26177.11678778  .00000303  00000+0  83346-4 0  9995
2 20323  97.0634   7.2460 0069978 139.0447 221.6038 14.50736480911457
ARIANE 40 R/B           
1 20443U 90005H   26177.14765198  .00000215  00000+0  81811-4 0  9991
2 20443  98.2955 234.4851 0009076 233.8137 126.2213 14.39931622908418
DELTA 2 R/B(1)          
1 20453U 90008B   26177.28638062  .00091463  00000+0  63690-3 0  9998
2 20453  35.5990 174.7242 0064457 200.8274 158.9836 15.70203814943134
