OBJECT_NAME,OBJECT_ID,EPOCH,MEAN_MOTION,ECCENTRICITY,INCLINATION,RA_OF_ASC_NODE,ARG_OF_PERICENTER,MEAN_ANOMALY,EPHEMERIS_TYPE,CLASSIFICATION_TYPE,NORAD_CAT_ID,ELEMENT_SET_NO,REV_AT_EPOCH,BSTAR,MEAN_MOTION_DOT,MEAN_MOTION_DDOT
SL-8 R/B,1985-006B,2026-06-26T03:21:43.814016,14.37838360,.00190656,74.0460,61.5895,307.3406,164.9565,0,U,15483,999,16961,.6101711E-4,.158E-5,0
SL-12 R/B(2),1985-042D,2026-06-26T07:25:22.000224,14.22007344,.00367889,71.1066,218.2437,314.0770,118.9452,0,U,15772,999,12983,.7283064E-4,.114E-5,0
SL-14 R/B,1985-069B,2026-06-26T06:09:18.441216,14.86522075,.00185365,82.5274,282.8366,187.9860,172.1065,0,U,15945,999,18896,.44272431E-4,.417E-5,0
SL-16 R/B,1985-097B,2026-06-26T07:20:17.488608,14.16613159,.00053686,71.0034,271.8805,91.4953,328.6803,0,U,16182,999,10261,.13457889E-3,.221E-5,0
SL-14 R/B,1986-006B,2026-06-26T00:02:14.173152,14.86953224,.00746844,82.5266,157.8183,273.6613,85.6066,0,U,16496,999,16530,.49746261E-4,.493E-5,0
COSMOS 1743,1986-034A,2026-06-25T21:26:55.967712,15.67721482,.00045267,82.5273,319.4704,237.8845,122.1976,0,U,16719,999,19715,.48335495E-3,.53124E-3,0
SL-14 R/B,1986-046B,2026-06-25T21:48:18.578304,14.85676711,.00219346,82.4820,337.9333,227.7799,132.1556,0,U,16792,999,14247,.44608398E-4,.412E-5,0
SL-14 R/B,1986-055B,2026-06-26T02:43:59.135232,14.85728560,.00182285,82.5199,24.7395,337.9149,143.7703,0,U,16882,999,13546,.3863332E-4,.36E-5,0
AJISAI (EGS),1986-061A,2026-06-26T07:14:45.873312,12.44516770,.0011163,50.0082,119.3669,203.7352,277.1174,0,U,16908,999,48152,-.72797248E-4,-.108E-5,0
SL-14 R/B,1987-024B,2026-06-26T05:44:32.139168,14.86218880,.00166926,82.5281,350.7409,260.4854,99.4476,0,U,17567,999,10425,.43931735E-4,.411E-5,0
COSMOS 1833,1987-027A,2026-06-26T04:03:52.627968,14.13056821,.00231171,70.9200,97.9890,40.0887,320.1935,0,U,17589,999,2564,.17925782E-3,.288E-5,0
SL-16 R/B,1987-027B,2026-06-25T23:14:43.809504,14.17172197,.00066959,71.0033,48.3242,302.8463,57.2015,0,U,17590,999,3068,.13557097E-3,.226E-5,0
SL-14 R/B,1987-038B,2026-06-26T06:57:43.434720,14.85450109,.00197098,82.5004,194.4977,161.2473,198.9474,0,U,17912,999,9535,.37566517E-4,.349E-5,0
COSMOS 1844,1987-041A,2026-06-26T07:11:54.042720,14.14568363,.00324118,70.8967,165.0849,222.1569,137.7060,0,U,17973,999,1894,.11709223E-3,.177E-5,0
SL-14 R/B,1987-055B,2026-06-26T05:56:58.913376,14.85716398,.00210195,82.4988,246.6881,18.8981,341.3010,0,U,18153,999,8605,.35428285E-4,.333E-5,0
COSMOS 1867,1987-060A,2026-06-26T05:09:48.517632,14.31516729,.00167186,65.0115,2.7746,282.0723,77.8487,0,U,18187,999,3547,.27850307E-4,-.26E-6,0
SL-14 R/B,1988-001B,2026-06-26T06:00:47.793024,14.85615396,.00166662,82.5135,93.2475,236.8142,123.1476,0,U,18749,999,5814,.40512942E-4,.375E-5,0
COSMOS 1933,1988-020A,2026-06-25T23:57:10.734624,15.18765145,.00044966,82.5121,143.7095,156.2422,203.9020,0,U,18958,999,6666,.198807E-3,.4162E-4,0
SL-3 R/B,1988-032B,2026-06-26T04:35:11.567040,15.20900762,.00245079,97.5255,160.2227,211.7685,148.2073,0,U,19046,999,6859,.18915665E-3,.4143E-4,0
SL-16 R/B,1988-039B,2026-06-26T06:44:32.553312,14.19630832,.00217134,71.0129,198.9292,179.4027,180.7128,0,U,19120,999,97379,-.31919808E-4,-.116E-5,0
COSMOS 1953,1988-050A,2026-06-26T02:37:31.181088,15.30092420,.00124693,82.5080,49.0370,99.1374,261.1277,0,U,19210,999,5435,.28599382E-3,.8379E-4,0
SL-8 R/B,1988-053B,2026-06-26T06:04:28.105248,14.38970670,.00192356,74.0479,272.3460,64.3241,2.2902,0,U,19257,999,99221,.59953794E-4,.159E-5,0
COSMOS 1975,1988-093A,2026-06-26T05:58:22.054368,15.29436482,.00121085,82.5187,8.5857,141.5898,218.6207,0,U,19573,999,3599,.26298003E-3,.7553E-4,0
SL-14 R/B,1988-093B,2026-06-26T07:08:45.086784,14.85748185,.00216386,82.5317,300.0914,42.0761,21.2581,0,U,19574,999,1714,.44113649E-4,.409E-5,0
SL-16 R/B,1988-102B,2026-06-25T16:38:19.780800,14.16166267,.00153235,71.0002,284.2409,213.2883,146.7278,0,U,19650,999,94218,.15490098E-3,.259E-5,0
INTERCOSMOS 24,1989-080A,2026-06-26T01:41:28.123296,12.59673987,.11881471,82.6056,33.8646,41.3141,327.1929,0,U,20261,999,68044,.19589589E-3,.691E-5,0
SL-14 R/B,1989-080C,2026-06-26T06:46:09.995232,12.50574189,.12284249,82.5942,103.4649,296.5841,51.4524,0,U,20262,999,67372,.45586509E-4,.151E-5,0
DELTA 1 R/B,1989-089B,2026-06-26T02:48:10.464192,14.50736480,.00699783,97.0634,7.2460,139.0447,221.6038,0,U,20323,999,91145,.83346451E-4,.303E-5,0
ARIANE 40 R/B,1990-005H,2026-06-26T03:32:37.131072,14.39931622,.00090762,98.2955,234.4851,233.8137,126.2213,0,U,20443,999,90841,.81810593E-4,.215E-5,0
DELTA 2 R/B(1),1990-008B,2026-06-26T06:52:23.285568,15.70203814,.00644576,35.5990,174.7242,200.8274,158.9836,0,U,20453,999,94313,.63689523E-3,.91463E-3,0
